{"type": "FeatureCollection", "columns": {"ADM0_CODE": "Integer", "ADM0_NAME": "String", "ADM1_CODE": "Integer", "ADM1_NAME": "String", "ADM2_CODE": "Integer", "ADM2_NAME": "String", "DISP_AREA": "String", "EXP2_YEAR": "Integer", "STATUS": "String", "STR2_YEAR": "Integer", "Shape_Area": "Float", "Shape_Leng": "Float", "system:index": "String"}, "version": 1701682634012831, "id": "FAO/GAUL/2015/level2", "properties": {"system:asset_size": 316969462}, "features": [{"type": "Feature", "geometry": {"type": "Polygon", "coordinates": [[[75.41448863235033, 12.496711000563367], [75.42018290888143, 12.479663792196995], [75.42053963873701, 12.471539359694274], [75.42428525134218, 12.46625084244574], [75.42250608360332, 12.460061651673964], [75.41677161486425, 12.458879978011543], [75.41467145005852, 12.454090854043686], [75.40907967126367, 12.44985028794772], [75.4034969340568, 12.447567204640722], [75.39193002440621, 12.445087959737553], [75.38582549136945, 12.450701994021928], [75.36662459749145, 12.451660708724427], [75.36588882423581, 12.449078817704178], [75.36943832813247, 12.445631958921163], [75.37053520113473, 12.42894150826772], [75.36559903248792, 12.407042940326313], [75.36971921803085, 12.401799004999665], [75.372194015299, 12.395730177874217], [75.37616709074678, 12.392461608739751], [75.37858388302035, 12.386669299035407], [75.38117015416792, 12.384792021221603], [75.38578982803031, 12.385590128685267], [75.39071715921375, 12.383440868538417], [75.39433349294518, 12.379833451751281], [75.39711594087295, 12.375240599326233], [75.4011380743508, 12.37569987563547], [75.40336763613155, 12.372560654657796], [75.4114609042097, 12.374571703104161], [75.41886739357015, 12.36951954879982], [75.42138682430951, 12.36673261789548], [75.42143145968961, 12.361903435211914], [75.4193579456344, 12.352548211636869], [75.41774819622943, 12.348432490119507], [75.41427460375051, 12.34392880498804], [75.41005621339119, 12.34134253977594], [75.41117991373696, 12.33781980534274], [75.41436823574277, 12.333753095643052], [75.41633467201866, 12.32147278630566], [75.41985285299047, 12.319461726251609], [75.41995990783586, 12.314458571981527], [75.42308127010992, 12.308140046630596], [75.42990820820363, 12.302231750567561], [75.43039863547665, 12.299520622425193], [75.42164547815159, 12.290959168967426], [75.41913049754892, 12.286401884554838], [75.42366988040479, 12.28703960239623], [75.4273754051328, 12.29066928196009], [75.43073311378613, 12.292002595623503], [75.43607959815104, 12.29181082746627], [75.44140820105684, 12.290009377542694], [75.45836617339582, 12.288551220347417], [75.46720857213441, 12.295378099490444], [75.48272619897338, 12.286183392111644], [75.48670374067096, 12.281461216452971], [75.49252290337428, 12.266821980866427], [75.49400325382075, 12.265131988425761], [75.50200739676674, 12.264044001919823], [75.50392923007804, 12.263161119292436], [75.5038668459767, 12.259700792567868], [75.51110838162845, 12.2533198380831], [75.5114071351812, 12.25043927305062], [75.51307488344746, 12.249320034459878], [75.516668902779, 12.243750619983642], [75.51928638828721, 12.235938317781876], [75.51994188539373, 12.233169147229656], [75.5185016006416, 12.230600774292816], [75.5233620282066, 12.22887060088347], [75.52482456819395, 12.22503131674007], [75.52532845698038, 12.219631320338276], [75.53793436128258, 12.211052028809577], [75.53804586286094, 12.206780190599005], [75.53688197771699, 12.20352063970453], [75.53298920426012, 12.19909275179968], [75.53373837606105, 12.196091736272487], [75.53791650325309, 12.195391695849555], [75.54036898584995, 12.19236835808039], [75.54386053181973, 12.191971548251255], [75.54875211161249, 12.188390901951045], [75.55113325574021, 12.184440127771905], [75.55240416675471, 12.17614174188735], [75.55525350498436, 12.176333472939138], [75.55961446575748, 12.168672710943929], [75.56384169714201, 12.166831119338502], [75.57038772882704, 12.165457749577252], [75.57684447019805, 12.150751572347897], [75.58270815206491, 12.150430518052529], [75.58714948026669, 12.148290169919417], [75.59144803975701, 12.143050773297627], [75.59317812146593, 12.142961589497254], [75.59472096773307, 12.145360551792638], [75.59760154950119, 12.146528853924153], [75.60208301332528, 12.146751774224896], [75.608147363189, 12.14866923853681], [75.61131335733009, 12.145859963153312], [75.61708784393905, 12.148932330686158], [75.62687113168256, 12.145048444728381], [75.6293726565787, 12.141619370546803], [75.63508481316313, 12.142390818926263], [75.63678818846792, 12.140419909404036], [75.63761753905143, 12.133780297341234], [75.64068541166914, 12.133151543990452], [75.64250920008087, 12.130770375156942], [75.64385141284039, 12.127069317037797], [75.64433296572878, 12.123711580128012], [75.64298187913869, 12.11993033061306], [75.64745432038114, 12.114753263818718], [75.64807861881718, 12.10558091062131], [75.65155225107625, 12.10396223156495], [75.6527874049585, 12.10130015595727], [75.65822753275323, 12.094299401285822], [75.66242795729801, 12.091182469640222], [75.6676005351166, 12.090000788472782], [75.6727374233868, 12.090669647456886], [75.67830684093661, 12.093059725954948], [75.68163330001784, 12.096578027700932], [75.68419734735119, 12.102241074768903], [75.6919651012391, 12.102588830538476], [75.70160119225483, 12.1003325395343], [75.70033477013129, 12.088029916374742], [75.7006602958099, 12.083530700353515], [75.70652850729718, 12.082808304538764], [75.71714559900111, 12.078429483325813], [75.71753799458368, 12.077452882115098], [75.71420259817758, 12.069212475125333], [75.71465294818339, 12.065341954886543], [75.71705641803831, 12.062091298020773], [75.72804815587035, 12.064102369762649], [75.73435773602796, 12.06770088016286], [75.73890605947639, 12.072182249015276], [75.7429415193826, 12.071780948329435], [75.74758787192857, 12.073439672693453], [75.75190875377673, 12.07740827485515], [75.75813372174723, 12.077207655117016], [75.76296285635361, 12.078581085461366], [75.76788124419738, 12.077519829453756], [75.78370658359076, 12.07643179729219], [75.78957930414502, 12.074612500273016], [75.79534934783251, 12.074228988269734], [75.79968360090488, 12.071183396316309], [75.80169463688726, 12.067977342774356], [75.79617876470427, 12.049489927294104], [75.79325804653935, 12.047510009990726], [75.79785984454625, 12.041641875264908], [75.79857776736642, 12.039670973343728], [75.79815854344761, 12.032670148865213], [75.79995560147448, 12.030293462636426], [75.81019812534903, 12.024059616428792], [75.8119951204436, 12.021959351677634], [75.81191043232627, 12.016109066750632], [75.82353085648575, 12.009340144768407], [75.82662988988262, 12.005790735075944], [75.8275217250968, 12.002852152270904], [75.82375377633399, 11.99457159912226], [75.82359328117215, 11.9945716000399], [75.82438697675086, 11.984279976776072], [75.82697330651047, 11.977970337134908], [75.83058963808664, 11.974630478000051], [75.83969066457513, 11.972811216830214], [75.84443512116671, 11.970269507206362], [75.84657106341099, 11.964651020690276], [75.85108806926549, 11.957043780636582], [75.86589680992032, 11.945628476692978], [75.87674574103617, 11.940710110459463], [75.88330064771394, 11.938913074578519], [75.88968605525298, 11.938141641576633], [75.89444842164433, 11.936540825120593], [75.90379463157527, 11.934770607811236], [75.91543737572599, 11.934030407330063], [75.91963344361821, 11.935622287298862], [75.92518500144493, 11.932871031183913], [75.93112008367646, 11.931109703250101], [75.93718887797105, 11.932830889707992], [75.9483857088146, 11.933910011421167], [75.95490042006352, 11.931511005761006], [75.95887791487368, 11.928608124833676], [75.96791652950982, 11.926971632466849], [75.97264762778157, 11.927551285067334], [75.97627288444625, 11.924969458485965], [75.97985801174256, 11.924670699370353], [75.98336731870337, 11.925442137450494], [75.99444371587148, 11.92330181058336], [75.99819380733783, 11.92362281958639], [76.00396841708397, 11.93192124130465], [76.01389882683267, 11.933263451112103], [76.01843373019132, 11.93502027289609], [76.02301762773672, 11.934650174566375], [76.02958595142573, 11.932781869252313], [76.03851301251812, 11.939002288699026], [76.04194655499631, 11.943300893447127], [76.04775227179914, 11.94446913150127], [76.06674808768294, 11.958270083096098], [76.0728079433976, 11.961279986115809], [76.08099935713864, 11.960669093391823], [76.09126866885208, 11.961587638937123], [76.10791002607056, 11.970639629490593], [76.11207478317617, 11.973899177190937], [76.11730088040439, 11.975018424719993], [76.12280345850596, 11.977569014732689], [76.12699050029215, 11.981907760308298], [76.1361673537805, 11.993880431227518], [76.14376117881089, 11.999753100631702], [76.14598187341404, 12.008220894648666], [76.14984787623774, 12.012559591424798], [76.15640278253736, 12.016479130281827], [76.15986751349901, 12.017700927198838], [76.16565089078388, 12.019569319549793], [76.17263834492992, 12.02026051582034], [76.1779179245801, 12.0240819270097], [76.18013850246885, 12.028019341164548], [76.18122211214843, 12.032001292762118], [76.18308152793166, 12.045779918905504], [76.18049077385433, 12.051719471111687], [76.17378428203556, 12.062202797791798], [76.17220131897162, 12.066719822089322], [76.17079223012944, 12.073430773362896], [76.17000749989305, 12.083191813790572], [76.17164400047997, 12.094419795528058], [76.16940992724743, 12.095369599522614], [76.16742560628839, 12.098852095308503], [76.16497758255268, 12.111921742942663], [76.16295763780548, 12.115480117153444], [76.1587526843938, 12.12001057843045], [76.15123913617856, 12.132152711978419], [76.14523274027049, 12.139242653159329], [76.13867340268932, 12.150180822809443], [76.13424102846342, 12.164311704438864], [76.13107947082707, 12.170759620647157], [76.13035715246339, 12.178982210432993], [76.1290193846778, 12.182977515088334], [76.12774858159852, 12.186290687977586], [76.12610765939682, 12.187369753406399], [76.1212026477399, 12.18413246972446], [76.11712700777946, 12.183209433125603], [76.11245829017544, 12.183989780116018], [76.10098057666515, 12.188252687632023], [76.0960711230401, 12.192323775433557], [76.08806699821221, 12.205130323825108], [76.0768657844502, 12.218521052934701], [76.06826863106389, 12.232714357706817], [76.06474147224415, 12.237079823936103], [76.05689787351898, 12.24374170505181], [76.04646362881202, 12.24082098450949], [76.04296317952634, 12.241797557564999], [76.03553880619546, 12.246399292926064], [76.03338060059936, 12.24654204019292], [76.03230148515627, 12.245552137436496], [76.02414135366594, 12.245431675186737], [76.02182704029461, 12.243951304623238], [76.01793874376281, 12.245730495167715], [76.01239610316064, 12.253631971938438], [76.0108265054935, 12.258840187606513], [76.01209289989671, 12.271098267262401], [76.01200815517423, 12.276221757821281], [76.01055004193593, 12.283102220691434], [76.00116810763478, 12.294900992734469], [75.99497881682835, 12.29957853866915], [75.99207151641505, 12.30991027515347], [75.99341371600572, 12.316313555778194], [75.99500113479766, 12.319078254941793], [75.99164790827008, 12.322190687639658], [75.98673394171777, 12.325387829803311], [75.97831514993977, 12.332179040587041], [75.97106021964663, 12.333672858350285], [75.96768019626191, 12.336094176276381], [75.95696053892704, 12.3391485955602], [75.95298750760217, 12.344049148893808], [75.93931588405646, 12.357261511039479], [75.93453129320474, 12.363611231714543], [75.92994731724029, 12.371820499096707], [75.91580751519636, 12.380132230917926], [75.91139298241792, 12.3789015097083], [75.91105854380774, 12.382919164087289], [75.9080977437608, 12.387400526002738], [75.90680009772616, 12.393099277250784], [75.90685362375716, 12.395962037721683], [75.91454113261399, 12.405482197977902], [75.91890656422923, 12.412598915443855], [75.92119405503975, 12.423349833915905], [75.92623287188432, 12.431492126608584], [75.93004540256985, 12.433431821491062], [75.93313554262775, 12.433440747170163], [75.93488348478289, 12.436049356750802], [75.9429946325521, 12.44017849537522], [75.95202435295265, 12.443491605335634], [75.95639871550212, 12.443652131888376], [75.96290454895284, 12.442220742711497], [75.96659667228484, 12.440548574932134], [75.968986756242, 12.440450482993555], [75.97036009259567, 12.442037924114315], [75.96866565365299, 12.446171531746522], [75.96668135611675, 12.455941384910108], [75.96660553042865, 12.457791971897924], [75.96874147822071, 12.462781705131372], [75.96283766817851, 12.46638016714623], [75.96499581929403, 12.474647372054362], [75.95752687803872, 12.480359403364465], [75.95715224227159, 12.482031620616512], [75.96069277145867, 12.4870614292365], [75.95947099917169, 12.497121163848611], [75.9622713506149, 12.501861193601735], [75.96444740421931, 12.502989379683621], [75.97016840740012, 12.503609184002922], [75.97226860373398, 12.511680149247699], [75.97934074440602, 12.514471569189613], [75.9866715008183, 12.513610966936623], [75.98953870486056, 12.514391272343161], [75.9932040839713, 12.517793595955077], [75.99159441469726, 12.522551439949616], [75.98507070143351, 12.529913459010823], [75.98404514919885, 12.535299993733005], [75.98618100664972, 12.537971043717535], [75.99105035555088, 12.535759341300839], [75.99426092023606, 12.535469481452969], [75.9954604236395, 12.536450449272209], [75.99635225089348, 12.53696329392507], [75.99752941867382, 12.537721345417744], [75.99797984300719, 12.540499354746167], [75.9970790814412, 12.542349900050517], [75.99547379666247, 12.543750020760793], [75.98900809987924, 12.548717452709694], [75.98924891384154, 12.550960372540816], [75.99179058721874, 12.552699451115437], [75.99547379666247, 12.553118620341248], [75.99974114221725, 12.55174070514338], [76.00666612228602, 12.547758728207022], [76.01024683463264, 12.547250456156558], [76.00998816923303, 12.55207966121338], [76.01619520859838, 12.560623272608359], [76.00092279779933, 12.568707579175847], [75.99552728874146, 12.573349568345312], [75.99344046244448, 12.577527743665675], [75.98876728549978, 12.57716206775086], [75.98887436336841, 12.573840007908178], [75.98651995973856, 12.566919532377828], [75.98744293180829, 12.564021121129027], [75.97943888363065, 12.563071348444543], [75.97583594185328, 12.566772356339653], [75.96848282415183, 12.567860381233139], [75.97451155365908, 12.553689347845426], [75.9623248554541, 12.552761893196564], [75.95509221482475, 12.566701059459099], [75.94928200127335, 12.585041292455807], [75.94551845572195, 12.590441303069316], [75.93866928896576, 12.59631836429218], [75.93740293561288, 12.600260228165343], [75.9388743958437, 12.604157425370413], [75.94452858238785, 12.605071559907847], [75.94435909921093, 12.608589789766777], [75.94706575554926, 12.613334266443768], [75.94699000780281, 12.616549304438392], [75.94542038123099, 12.620183433344557], [75.93419682113779, 12.62225247001606], [75.93462937532564, 12.62380868630156], [75.93881202212083, 12.625730570281892], [75.94119319014864, 12.628869787670961], [75.94143842795415, 12.63205361261508], [75.93546320348233, 12.63861291388562], [75.93631040537247, 12.643388634829904], [75.93873618130671, 12.649689325845646], [75.94341821134779, 12.654161800306587], [75.9454248109746, 12.65880375931715], [75.94558091505027, 12.661220603758597], [75.94426545368741, 12.662790182713344], [75.94080965082605, 12.664569377215049], [75.93972609561712, 12.667070947890466], [75.94008731115154, 12.670812098975107], [75.94332013538431, 12.671842196606], [75.95199759856206, 12.671601412341507], [75.95423157253082, 12.67260016690921], [75.95643432783929, 12.675378235124727], [75.95813777402651, 12.679494002604068], [75.95865503145997, 12.68632086123971], [75.96260132632445, 12.69444084833635], [75.96375176170814, 12.704603195864703], [75.95755806072928, 12.704571955808701], [75.94039944244093, 12.710698746063033], [75.93990444424252, 12.714792249519551], [75.93612762213114, 12.724160756301812], [75.93382230007695, 12.725859725024836], [75.9331133033611, 12.728058067676772], [75.93737617842555, 12.742871187429115], [75.93525809160788, 12.755477038937114], [75.93601164369288, 12.759182591350747], [75.9386069151515, 12.760431123138694], [75.94650398093525, 12.757702131918833], [75.94901888151708, 12.757849263029403], [75.95340662663334, 12.762468967454641], [75.95432078191662, 12.768238968538403], [75.95688470795655, 12.772443919941692], [75.96095143997354, 12.774923205973371], [75.96926321390612, 12.776318898810509], [75.96971798158467, 12.77807128409207], [75.96768914291765, 12.783408894347788], [75.96671262534295, 12.790400721077802], [75.97055629505286, 12.79866792253971], [75.94902782936879, 12.796282263509879], [75.94712821418652, 12.799260930638107], [75.94447507073264, 12.801089243990425], [75.9313965276447, 12.801049071485581], [75.92675015866688, 12.802368990587777], [75.92350835701622, 12.806810246958037], [75.92251398628976, 12.809753206120977], [75.92460080983322, 12.813133231653357], [75.92282163765412, 12.818310269741938], [75.92022642838032, 12.821592177935184], [75.91691783914189, 12.82115069720123], [75.91619989564308, 12.813922532383302], [75.91425127463536, 12.811643918884563], [75.90622043786367, 12.809008594179454], [75.90249703446527, 12.810600458971168], [75.89906359967374, 12.818002561281371], [75.89620083340878, 12.82126219391958], [75.8870462732754, 12.825569704438038], [75.87576477896523, 12.827558442923007], [75.87345944253315, 12.826680028553815], [75.87457860971172, 12.819933378767614], [75.87348169123045, 12.817182138960732], [75.86174984848488, 12.814658261607091], [75.86221356318914, 12.8030199717476], [75.86145997061838, 12.791921260074602], [75.864572447767, 12.782958475722824], [75.87043163694194, 12.774410361699825], [75.87159107130277, 12.76946080960768], [75.87103369303557, 12.764301653162338], [75.86789893119777, 12.761808957702664], [75.86274863718624, 12.760899299998393], [75.85874883032513, 12.762460046592105], [75.85800860544984, 12.750050359897777], [75.8553376469058, 12.747089486571285], [75.8510970233442, 12.744521047387392], [75.84596455908878, 12.744142062448223], [75.84600915377938, 12.742960344241698], [75.85069125229867, 12.741239137320019], [75.85389731721806, 12.736878161363537], [75.85201113428415, 12.732312071123614], [75.84902799555111, 12.728740295026036], [75.84836360941108, 12.72384864874838], [75.84937135802468, 12.721199928682863], [75.85333100397901, 12.71723132528774], [75.86296271940674, 12.710417825368447], [75.86974501330276, 12.70664994233147], [75.86962906878053, 12.703492863156045], [75.87932757014893, 12.700942253107506], [75.88271202770822, 12.70095119051991], [75.88360386449997, 12.699381579146104], [75.88404082878945, 12.689839071251164], [75.88656021617051, 12.687101176745005], [75.8852314388187, 12.684019933372168], [75.88360386449997, 12.67094146172805], [75.8806920346487, 12.667588185436214], [75.8756398868564, 12.665710933239533], [75.86567829988361, 12.66710212571479], [75.85513250698031, 12.663410033301854], [75.85087405775067, 12.663178144504311], [75.84480074796281, 12.666031991534648], [75.8418577978945, 12.664159162277725], [75.83570864931497, 12.663048795160538], [75.83315360002035, 12.66417251424001], [75.82747712460198, 12.670339478446685], [75.82353085648575, 12.677581016039829], [75.81785444050874, 12.684849325535385], [75.80844128003463, 12.694472092423766], [75.80570341016549, 12.694619279527977], [75.80042829767785, 12.689589372481914], [75.7902525677305, 12.683819341703833], [75.77458779239437, 12.683003291770035], [75.77242061264701, 12.678490694715624], [75.77123899269854, 12.673679349074682], [75.76818000565714, 12.67532918188686], [75.76542876876135, 12.675030434626395], [75.7623520046807, 12.671561222590364], [75.75905667855316, 12.669599226210112], [75.75171703868877, 12.670678309531366], [75.74569726787436, 12.673937980932743], [75.73626623403584, 12.686320837503656], [75.72899792455257, 12.694128783447463], [75.71983449010528, 12.69300061461734], [75.71621811429836, 12.697771864156357], [75.71261513649837, 12.699831940630647], [75.70900772056665, 12.700228800158907], [75.70404925156498, 12.70301125335046], [75.69241543164969, 12.6967283747101], [75.68801874830757, 12.69605058311259], [75.67810171404966, 12.696670459605985], [75.66985237326016, 12.695230137246167], [75.66440779714054, 12.690601611645677], [75.65683627134271, 12.680760332341256], [75.6513069590839, 12.669862351335087], [75.64586692837682, 12.661260709170694], [75.64232639610583, 12.647152100594164], [75.64142560154163, 12.634350058810583], [75.64005220320402, 12.626778518890697], [75.63997638136712, 12.624361610957024], [75.65115985471265, 12.61625950170925], [75.65293006886398, 12.61025307936393], [75.65483857357957, 12.598833323878928], [75.66129088874979, 12.589411239467092], [75.66246808165647, 12.583641097370121], [75.66217824505772, 12.56910002263535], [75.6694554990807, 12.549591441621763], [75.66792160704122, 12.54461955908857], [75.66430526832009, 12.54169441224402], [75.65503032818498, 12.536602112978215], [75.64173776397674, 12.532700382926693], [75.6326054943182, 12.523180212529116], [75.62964018304874, 12.515292031313063], [75.62490019511226, 12.514899670708235], [75.62262608654578, 12.511198557863903], [75.61762294125118, 12.50800139715174], [75.61488953785019, 12.505160995021573], [75.60977938787978, 12.505299186334547], [75.6025690550428, 12.506842087329785], [75.59950118393455, 12.51580036947865], [75.59600073986536, 12.519077833124019], [75.59291061734791, 12.526662777238641], [75.58978925597965, 12.531942320902848], [75.58566455233277, 12.52998033930523], [75.57659025983492, 12.515341060256317], [75.56999973443855, 12.507898856095432], [75.56640567478719, 12.50549095832166], [75.55993559638715, 12.502579119728049], [75.55609184351223, 12.498610571502974], [75.55470059160932, 12.495930635896507], [75.56476473066512, 12.4875608876284], [75.56334673347548, 12.481478703824534], [75.55535157937764, 12.484773986766257], [75.53556206761174, 12.490289884969723], [75.53195020191369, 12.490169449644032], [75.52632281264869, 12.492488181043852], [75.52176565738995, 12.48422993864747], [75.51358769806795, 12.482963532680333], [75.50666717326392, 12.480881194368065], [75.5017398168831, 12.481532181331279], [75.49778906980916, 12.47855352625259], [75.49728962025115, 12.476809975350925], [75.49381155650786, 12.477211331997248], [75.4921884738513, 12.473782268901788], [75.4950868678019, 12.472761127918874], [75.4907971572379, 12.463049250465184], [75.49130107219301, 12.458612379103842], [75.48898233833022, 12.455022850856873], [75.48475511129915, 12.455821020363574], [75.48055913948654, 12.460721529401948], [75.47841426897416, 12.461497438387878], [75.47215813228541, 12.460440638111317], [75.46817620426064, 12.462161874658511], [75.46276730415346, 12.466848406427067], [75.4611887752358, 12.470322009383972], [75.46093010042654, 12.480158752788263], [75.46380625477289, 12.485581088456167], [75.46974132667329, 12.492742357920498], [75.46618742280764, 12.496421157749829], [75.46292784062764, 12.497669716444905], [75.46108174969866, 12.502249142421714], [75.4536885360861, 12.507470804767093], [75.44779363456271, 12.51319178483939], [75.4402310277611, 12.517668764253964], [75.43389017194026, 12.523171267806031], [75.43166950685129, 12.518480285018931], [75.43145105714717, 12.511818441902452], [75.42685811664222, 12.509232120122723], [75.41992869833314, 12.508590036528691], [75.41660222630422, 12.504438583089108], [75.41448863235033, 12.496711000563367]]]}, "id": "00020000000000000247", "properties": {"ADM0_CODE": 115, "ADM0_NAME": "India", "ADM1_CODE": 1494, "ADM1_NAME": "Karnataka", "ADM2_CODE": 17689, "ADM2_NAME": "Kodagu", "DISP_AREA": "NO", "EXP2_YEAR": 3000, "STATUS": "Member State", "STR2_YEAR": 1000, "Shape_Area": 0.340390758262, "Shape_Leng": 3.89778200859}}]}